[{"OBJECT_NAME":"THEOS-2 (T2V)","OBJECT_ID":"2023-155A","EPOCH":"2026-03-09T23:23:00.745152","MEAN_MOTION":14.81769696,"ECCENTRICITY":0.00013176,"INCLINATION":97.896,"RA_OF_ASC_NODE":141.418,"ARG_OF_PERICENTER":94.2148,"MEAN_ANOMALY":265.9216,"EPHEMERIS_TYPE":0,"CLASSIFICATION_TYPE":"U","NORAD_CAT_ID":58016,"ELEMENT_SET_NO":999,"REV_AT_EPOCH":13073,"BSTAR":0.00016747665,"MEAN_MOTION_DOT":1.269e-5,"MEAN_MOTION_DDOT":0},{"OBJECT_NAME":"COSMOS 2251 DEB","OBJECT_ID":"1993-036ALA","EPOCH":"2026-03-08T23:42:43.074720","MEAN_MOTION":14.71518636,"ECCENTRICITY":0.00635977,"INCLINATION":73.9498,"RA_OF_ASC_NODE":309.2244,"ARG_OF_PERICENTER":140.1523,"MEAN_ANOMALY":220.4344,"EPHEMERIS_TYPE":0,"CLASSIFICATION_TYPE":"U","NORAD_CAT_ID":35456,"ELEMENT_SET_NO":999,"REV_AT_EPOCH":67143,"BSTAR":0.0021093914,"MEAN_MOTION_DOT":0.00013511,"MEAN_MOTION_DDOT":0}]
